{
  "norad_id": 53975,
  "name": "STARLINK-5137",
  "history": [
    {
      "epoch": "2026-03-28T09:41:05.766144",
      "apogee_km": 540.5075399852822,
      "perigee_km": 538.914774625543,
      "latitude_deg": -23.81848268594894,
      "longitude_deg": -23.760259839938954,
      "semi_major_axis_km": 6917.848157305412,
      "eccentricity": 0.00011512,
      "inclination_deg": 53.2165,
      "raan_deg": 134.6886,
      "arg_perigee_deg": 92.4422,
      "mean_anomaly_deg": 267.6702,
      "mean_motion_rev_day": 15.08850545
    }
  ]
}